[{"OBJECT_NAME":"STARLINK-4317","OBJECT_ID":"2022-077R","EPOCH":"2026-03-10T00:00:02.999808","MEAN_MOTION":15.0405779,"ECCENTRICITY":0.00013405,"INCLINATION":97.6024,"RA_OF_ASC_NODE":250.4886,"ARG_OF_PERICENTER":90.6985,"MEAN_ANOMALY":78.9101,"EPHEMERIS_TYPE":0,"CLASSIFICATION_TYPE":"U","NORAD_CAT_ID":53058,"ELEMENT_SET_NO":999,"REV_AT_EPOCH":577,"BSTAR":0.0028198644,"MEAN_MOTION_DOT":0.00039151,"MEAN_MOTION_DDOT":0},{"OBJECT_NAME":"IRIDIUM 33 DEB","OBJECT_ID":"1997-051PF","EPOCH":"2026-03-08T20:08:48.628608","MEAN_MOTION":15.0410284,"ECCENTRICITY":0.00301759,"INCLINATION":86.2075,"RA_OF_ASC_NODE":10.7469,"ARG_OF_PERICENTER":217.121,"MEAN_ANOMALY":142.7938,"EPHEMERIS_TYPE":0,"CLASSIFICATION_TYPE":"U","NORAD_CAT_ID":35080,"ELEMENT_SET_NO":999,"REV_AT_EPOCH":70973,"BSTAR":0.01054144,"MEAN_MOTION_DOT":0.00150308,"MEAN_MOTION_DDOT":0}]
